#dP2019 12  7  0  0  0.00000000      97 __u+U IGS08 FIT  IAC
## 2082 518400.00000000   900.00000000 58824 0.0000000000000
+  114   C01C02C03C04C05C06C07C08C09C10C11C12C13C14C16C19C20
+        C21C22C23C24C25C26C27C28C29C30C32C33C34C35C36C37E01
+        E02E03E04E05E07E08E09E11E12E13E14E15E18E19E21E24E25
+        E26E27E30E31E33E36G01G02G03G04G05G06G07G08G09G10G11
+        G12G13G14G15G16G17G18G19G20G21G22G23G24G25G26G27G28
+        G29G30G31G32J01J02J03J07R01R02R03R05R07R08R09R11R12
+        R13R14R15R16R17R18R19R20R21R22R23R26  0  0  0  0  0
++        13 13 13 13 12  8  8  8  8  8  7  7  8  7  8  7  7
++         7  7  7  7  7  7  7  7  7  7  7  7  8  8  7  7  3
++         4  4  4  4  4  4  4  4  4  4  4  3  3  3  4  4  4
++         5  4  4  4  4  4  3  3  3  3  3  3  3  3  3  3  3
++         3  3  3  3  3  3  3  3  3  3  3  3  3  3  3  3  3
++         3  3  3  3  8  8  8 13  6  5  5  5  5  5  5  5  5
++         6  5  5  5  5  5  6  6  5  5  5  7  0  0  0  0  0
%c M  cc GPS ccc cccc cccc cccc cccc ccccc ccccc ccccc ccccc
%c cc cc ccc ccc cccc cccc cccc cccc ccccc ccccc ccccc ccccc
%f  1.2500000  1.025000000  0.00000000000  0.000000000000000
%f  0.0000000  0.000000000  0.00000000000  0.000000000000000
%i    0    0    0    0      0      0      0      0         0
%i    0    0    0    0      0      0      0      0         0
/* INFORMATION & ANALYSIS CENTER (IAC)            FINAL DATA
/* S/V CLOCKS ARE ALIGNED TO GNSS TIME                      
/* G:C1WC2W R:C1PC2P E:C1XC5X C:C2IC6I J:C1CC2S             
/* PCV:IGS14_2082 OL/AL:FES2004  NONE     YN ORB:CoN CLK:CoN
*  2019 12 07  2 45  0.00000000
PC01 -32280.207465  27109.354317   -930.392090    228.888346
PC02   4428.649534  41917.808541    959.611467    692.723909
PC03 -14754.140747  39526.597397    100.714729    136.989532
PC04 -39616.045158  14403.059995   -473.927274 999999.999999
PC05  21928.089600  36021.809079   1226.562777   -197.666319
PC06  -7643.218249  32346.601944  26516.397648    293.961910
PC07 -20045.845161  22119.242238 -29749.944930    187.944323
PC08 -22324.915595  35175.258800   5351.286802    -49.480123
PC09   3743.918000  39954.234052  13739.218937    169.290528
PC10  -1762.131831  25877.565682 -33067.983097   -436.795144
PC11  -3200.222886 -27597.553990  -2901.626576    -45.417916
PC12   8377.715235 -22279.837868  14636.623049    303.035274
PC13 -10362.457182  35922.465665  19302.699939    143.319600
PC14  -9173.809616 -18852.334725 -18420.435786    353.733820
PC16  -4707.689979  33827.658161  24871.708908   -946.185936
PC19  17841.525983  17873.003953  11877.982385    264.094356
PC20   -409.532549  16969.808716  22152.791925   -383.846443
PC21  18970.050166  -5928.671190 -19574.201664    127.080469
PC22  26010.226723   8415.383167  -5542.077007   -476.150056
PC23 -22559.513580    792.903808  16411.921115   -870.953284
PC24  11059.399957 -20347.799689  15587.776213   -882.298963
PC25  -8838.500131 -13461.073718  22789.799914   -438.657152
PC26  23034.222916 -15786.293823    -32.159174    487.242289
PC27 -13294.821879  14099.924855 -20094.937233    238.058475
PC28 -15578.572238  -7115.954634 -22027.315520    229.111662
PC29   9686.561358  23693.126023  11112.460877    156.194989
PC30  -2376.537304  27017.063806  -6602.676537    236.065605
PC32 -18952.013539   6071.437048  19569.625180   -858.209353
PC33 -17886.930626 -17816.625229 -11907.081966   -643.017424
PC34   2258.059589 -27088.774118   6270.170298   -291.115432
PC35  15862.092569   6719.858548  21965.364868   -631.208383
PC36   8342.633112  13757.009519 -22773.852274   -882.107223
PC37 -23576.900132  14901.039660    618.168492   -860.741170
PE01 -12546.206237  16372.721871 -21221.865807   -747.106772
PE02  12480.437016 -16390.723586  21264.761944     96.964673
PE03   2133.069099 -20810.588259 -20954.621827   -241.070934
PE04  14575.370276  24924.160018   6517.376798   -420.207468
PE05  17774.395714  -4441.386949 -23255.144922   -424.987523
PE07 -22926.857969 -14427.758562  11941.780537   -309.254477
PE08 -14906.554187 -24770.699801  -6391.437719   6252.804632
PE09  22974.038060  14236.191539 -12057.270037   6229.459766
PE11  15172.316543   6055.169353  24684.156090    260.044656
PE12   3101.844085  24167.170404  16821.237758   6063.964181
PE13 -15038.780420  -6178.955003 -24725.181880    396.120523
PE14 -17283.395610 -21598.620403 -11542.347963   -821.241031
PE15  -3338.843974 -23974.860383 -17028.107712    885.262694
PE18   7445.961838  26120.297497  -1011.608327   -916.835133
PE19  -3929.049134  19437.371617  21971.913620     -2.558443
PE21 -27567.811063   8846.847258  -6150.109424   -569.946038
PE24  26498.940618   4113.612115 -12562.988957   5729.214954
PE25  27603.944461  -8803.956092   6076.944963   -497.758855
PE26 -18124.922512  15306.424990 -17686.170412   3792.908279
PE27 -26478.073477  -3976.056129  12621.582880    330.366038
PE30  -9712.018668 -14530.742646  23884.354617   4325.897792
PE31   9862.049865  14401.264458 -23894.561853   -470.815188
PE33 -10320.266462  27733.942381   -643.297748   -471.589377
PE36  17939.622872 -15266.560690  17936.391276    627.526712
PG01  13761.929153 -22148.402532  -4239.882255   -221.442059
PG02 -19168.753622   9527.161000 -15019.987834   -361.366745
PG03   8156.632886 -13765.666305 -21244.482324    -48.546355
PG04   1148.594124 -23070.195970 -13023.455473    -17.472390
PG05 -24909.681272   3556.074727   8663.559398     -4.369722
PG06 -14808.732481  -4550.193387 -21529.718672   -146.059206
PG07     28.002626 -19986.412536  17533.775197   -164.522436
PG08   9717.443216 -13438.318825  20729.262598    -15.866609
PG09  -5973.466216 -25148.908888  -6136.165943   -101.846800
PG10  20490.969857  11565.645409  12607.201819   -162.667472
PG11   7933.436217 -25208.843207   3487.632652   -426.755103
PG12 -13583.107756  10989.315539 -20171.369785    175.878809
PG13 -14372.562138   4338.213037  21786.047119    -28.266286
PG14  16439.229281  10162.593269 -17972.311266    -46.311052
PG15  -8631.440001  15136.272666  19644.972513   -267.480677
PG16  25613.220909    569.419577   7636.611304   -100.459398
PG17 -14134.769515 -19747.813521 -10411.127768    176.221038
PG18  17064.002743 -19807.241236   3879.987909    105.032701
PG19 -15766.018344 -13267.609582 -17042.663057   -229.784463
PG20  11459.560995  14322.491097  19174.218410    527.612005
PG21   3964.494961  18696.852578  19320.583709    -74.773208
PG22  16079.588500 -11954.604980 -17167.477837   -776.166432
PG23   1399.138242 -22159.390446 -13938.459311   -151.121974
PG24 -13943.612013  22329.350353  -1594.102143     -5.859264
PG25   2356.531874  15432.311533 -21733.884933    -17.415849
PG26  26214.521947   4395.450007  -2251.314839    100.198864
PG27  15362.894499   -816.243102  21576.175951   -142.623026
PG28 -19818.967675 -13090.202838  12356.710027    751.816508
PG29   3584.060884  25379.909258  -6945.641767     25.122537
PG30  -9806.663424 -12511.898333  21290.975169   -100.212515
PG31  16762.415847   2346.720120 -20599.818510     -8.108460
PG32  15912.645852  18388.887515 -10777.570040    147.788418
PJ01 -27513.622265  21632.951224  28570.326745   -328.814425
PJ02 -35403.552674  20062.983163  -6573.053351     -0.242791
PJ03 -19221.307929  27171.813961 -21297.392291     -8.607153
PJ07 -25374.855687  33667.043778      1.113081     -0.031279
PR01  -4919.149773  10109.361414  22889.036872     53.738142
PR02  13742.604773  17704.621449  12265.186007    401.224945
PR03  21351.486225  13079.522193  -4972.796595      6.054770
PR05   2488.862156 -11454.988314 -22650.349679     40.754797
PR07 -21359.465642 -12730.426582   5618.767638    -30.392360
PR08 -16686.448223  -1041.558049  19302.999724     13.967276
PR09  -6618.545862  -9289.984147  22835.193909    104.933347
PR11 -23539.602059   9880.011764    359.116703     17.519848
PR12 -14612.300908  14139.865056 -15354.773249     85.682669
PR13   3469.151714  10394.159664 -23047.584609    -31.925962
PR14  19066.252276    682.184937 -16911.518245     45.806365
PR15  23674.669338  -9428.767315  -1174.764922    105.069453
PR16  14124.027547 -14552.968082  15534.005842     -0.303969
PR17   8786.600933   9917.908579  21801.238900    281.760627
PR18  10864.480784  -8550.471172  21443.402836     17.089254
PR19   7787.445497 -22243.504937   9777.103176    -67.650260
PR20   -760.436094 -23568.761707  -9666.596468   -398.178757
PR21  -8905.757631  -9161.588228 -22077.953508    -89.993153
PR22 -10637.003398  11717.367504 -20035.001613     -4.435591
PR23  -4994.939795  24721.888120  -3800.896310    271.548083
PR26    547.327649 -24803.434756  -5983.083288     13.976805
EOF
